PROBA-1                 
1 26958U 01049B   26179.61967601  .00001602  00000+0  10626-3 0  9991
2 26958  97.9600 188.5508 0056597  84.4170 276.3508 15.07544474345345
CUTE-1 (CO-55)          
1 27844U 03031E   26179.48757997  .00000272  00000+0  13667-3 0  9999
2 27844  98.6736 187.9043 0010221 146.4668 213.7159 14.24342303193286
CUBESAT XI-IV (CO-57)   
1 27848U 03031J   26179.55199356  .00000229  00000+0  11941-3 0  9995
2 27848  98.6768 187.6716 0009707 163.9321 196.2167 14.23626546192990
APRIZESAT 4             
1 35684U 09041D   26179.18093039  .00000652  00000+0  84372-4 0  9998
2 35684  98.1411 254.7205 0041933 286.4455  73.2152 14.83892697912998
APRIZESAT 3             
1 35686U 09041F   26179.40068182  .00000810  00000+0  74836-4 0  9996
2 35686  98.2075 333.1626 0062356  31.0849 329.4037 14.96272950918058
PROBA-2                 
1 36037U 09059B   26179.51965420  .00000186  00000+0  53748-4 0  9994
2 36037  98.2450   2.7153 0012062 243.2462 116.7501 14.54867050883179
APRIZESAT 5             
1 37792U 11044E   26179.55972507  .00000994  00000+0  13278-3 0  9998
2 37792  98.2452 112.9225 0051423 327.5281  32.2769 14.81098843800479
APRIZESAT 6             
1 37793U 11044F   26179.60723475  .00000771  00000+0  11577-3 0  9996
2 37793  98.2356  90.3396 0044210  50.5938  68.2243 14.76932723798839
PROBA-V                 
1 39159U 13021A   26179.50527632  .00000090  00000+0  57671-4 0  9997
2 39159  98.3591 157.5535 0005418  97.5239 262.6557 14.23599610682726
APRIZESAT 7             
1 39416U 13066A   26179.42423378  .00001203  00000+0  12418-3 0  9991
2 39416  97.7712 132.4827 0035969 171.6554 188.5270 14.91586115682903
APRIZESAT 8             
1 39425U 13066K   26179.37402431  .00000822  00000+0  94928-4 0  9995
2 39425  97.8224 126.6862 0044412 248.4737 111.1742 14.87671418681333
BUGSAT-1 (TITA)         
1 40014U 14033E   26179.58976273  .00007357  00000+0  38601-3 0  9994
2 40014  98.0440 272.8061 0028809 140.0637 220.2721 15.15714512657567
SAUDISAT 4              
1 40016U 14033G   26179.41293088  .00000582  00000+0  83331-4 0  9998
2 40016  97.7595 325.1599 0045619  38.4057 322.0387 14.79558133647739
APRIZESAT 9             
1 40018U 14033J   26179.61044440  .00000747  00000+0  11688-3 0  9996
2 40018  97.9073 312.5306 0066596 162.4396 197.9137 14.74230526645245
APRIZESAT 10            
1 40019U 14033K   26179.62327409  .00000503  00000+0  86782-4 0  9995
2 40019  97.9662 306.3284 0077631 236.6996 122.6759 14.70893151643932
TECHDEMOSAT-1 (TDS-1)   
1 40076U 14037H   26179.53093560  .00007930  00000+0  44753-3 0  9992
2 40076  98.3810 172.8692 0005245 216.6058 143.4813 15.13455716649941
TECHNOSAT               
1 42829U 17042E   26179.41914400  .00002434  00000+0  17492-3 0  9995
2 42829  97.4291 336.6508 0019121  59.2633 301.0474 15.05025259488397
FLYING LAPTOP           
1 42831U 17042G   26179.58372714  .00003405  00000+0  26861-3 0  9991
2 42831  97.4730 334.6810 0019970  85.2696 275.0809 15.01217521488160
HAWK-A                  
1 43765U 18099H   26179.63624502  .00006006  00000+0  24153-3 0  9994
2 43765  97.3911 231.7231 0033286 243.4959 116.2864 15.24772210414844
HAWK-B                  
1 43794U 18099AN  26179.60574816  .00005376  00000+0  22923-3 0  9997
2 43794  97.3959 231.0841 0030278 262.5657  97.2139 15.22943988414778
HAWK-C                  
1 43799U 18099AT  26179.39037421  .00007001  00000+0  25145-3 0  9990
2 43799  97.3887 232.4479 0038901 244.3625 115.3593 15.28255160415624
SALSAT                  
1 46495U 20068K   26179.59166665  .00006710  00000+0  23412-3 0  9991
2 46495  97.8846 183.3517 0007859 259.1040 100.9315 15.29955960317102
HAWK-2C                 
1 47502U 21006CT  26179.56239028  .00005977  00000+0  17934-3 0  9991
2 47502  97.2276 223.6456 0007877 148.8268 211.3444 15.34797775301241
HAWK-2A                 
1 47505U 21006CW  26179.56477312  .00005961  00000+0  17881-3 0  9998
2 47505  97.2317 224.3323 0007332 151.5541 208.6105 15.34812163301244
HAWK-2B                 
1 47508U 21006CZ  26179.62479073  .00006749  00000+0  20143-3 0  9994
2 47508  97.2187 222.7045 0007931 150.1419 210.0279 15.34919003301250
HAWK-3B                 
1 48931U 21059BE  26179.54175143  .00041991  00000+0  34249-3 0  9995
2 48931  97.6646  17.3314 0003193 270.4753  89.6143 15.70511081279635
HAWK-3C                 
1 48948U 21059BX  26179.54142581  .00041407  00000+0  33779-3 0  9992
2 48948  97.6763  23.0364 0003413 272.3039  87.7831 15.70507975279635
HAWK-3A                 
1 48957U 21059CG  26179.54129552  .00042237  00000+0  34461-3 0  9996
2 48957  97.6708  20.2319 0003381 274.6855  85.4020 15.70501384279631
HAWK-5C                 
1 52754U 22057Y   26179.39486445  .00017413  00000+0  29314-3 0  9994
2 52754  97.6604 339.7878 0004204  46.7459 313.4143 15.51778374228084
HAWK-5B                 
1 52756U 22057AA  26179.39469656  .00017633  00000+0  29675-3 0  9995
2 52756  97.6614 338.1377 0004824  38.5827 321.5768 15.51782119228085
